IRIDIUM 126             
1 42809U 17039G   24277.92975618  .00000412  00000+0  14016-3 0  9993
2 42809  86.3928 253.2145 0002096  90.1848 269.9588 14.34216851380902
IRIDIUM 124             
1 42810U 17039H   24277.84807906  .00002681  00000+0  79057-3 0  9996
2 42810  86.4567 190.0548 0002566  89.7942 270.3553 14.43292890385494
IRIDIUM 128             
1 42811U 17039J   24277.57165079  .00000114  00000+0  33626-4 0  9997
2 42811  86.3905 284.9142 0002197  96.8642 263.2804 14.34218087380883
IRIDIUM 121             
1 42812U 17039K   24277.87901404  .00001459  00000+0  51388-3 0  9998
2 42812  86.3923 253.2590 0002197  85.5813 274.5633 14.34222341380776
IRIDIUM 133             
1 42955U 17061A   24277.88243755  .00000080  00000+0  21573-4 0  9993
2 42955  86.3907 284.8864 0002198  90.2927 269.8521 14.34218305365726
IRIDIUM 100             
1 42956U 17061B   24277.73655714  .00000059  00000+0  13868-4 0  9994
2 42956  86.3907 284.8806 0002258  94.8608 265.2846 14.34217693365703
IRIDIUM 122             
1 42957U 17061C   24277.63507608  .00000131  00000+0  39679-4 0  9991
2 42957  86.3905 284.9218 0002074  95.6318 264.5114 14.34218444365696
IRIDIUM 129             
1 42958U 17061D   24277.73021402  .00000287  00000+0  95434-4 0  9999
2 42958  86.3909 284.9426 0002023  87.7794 272.3634 14.34219654365728
